{
  "type": "FeatureCollection",
  "features": [
    {
      "type": "Feature",
      "properties": {
        "norad_id": 33860,
        "name": "IRIDIUM 33 DEB",
        "group": "iridium-33-debris",
        "lat": -57.94989084354268,
        "lon": -153.10103373357705,
        "alt_km": 674.3424749280894,
        "timestamp": "2025-12-26T14:28:48.087906+00:00",
        "meta_object_name": "IRIDIUM 33 DEB",
        "meta_object_id": "1997-051AD",
        "meta_epoch": "2025-12-26T02:11:16.037376",
        "meta_mean_motion": 14.6752687,
        "meta_eccentricity": 0.00060008,
        "meta_inclination": 86.3825,
        "meta_ra_of_asc_node": 21.3263,
        "meta_arg_of_pericenter": 304.5044,
        "meta_mean_anomaly": 109.5001,
        "meta_ephemeris_type": 0,
        "meta_classification_type": "U",
        "meta_norad_cat_id": 33860,
        "meta_element_set_no": 999,
        "meta_rev_at_epoch": 88918,
        "meta_bstar": 0.0011340183,
        "meta_mean_motion_dot": 6.452e-05,
        "meta_mean_motion_ddot": 0,
        "tle_line1": "1 33860U 97051AD  25360.09115784  .00006452  00000+0  11340-2 0  9990",
        "tle_line2": "2 33860  86.3825  21.3263 0006000 304.5044 109.5001 14.67526870889183"
      },
      "geometry": {
        "type": "Point",
        "coordinates": [
          -153.10103373357705,
          -57.94989084354268
        ]
      }
    },
    {
      "type": "Feature",
      "properties": {
        "norad_id": 33862,
        "name": "IRIDIUM 33 DEB",
        "group": "iridium-33-debris",
        "lat": 19.580855935944488,
        "lon": 32.695498119430646,
        "alt_km": 625.7285643036194,
        "timestamp": "2025-12-26T14:28:48.087917+00:00",
        "meta_object_name": "IRIDIUM 33 DEB",
        "meta_object_id": "1997-051AF",
        "meta_epoch": "2025-12-26T03:12:38.981664",
        "meta_mean_motion": 14.69690287,
        "meta_eccentricity": 0.0051963,
        "meta_inclination": 86.4084,
        "meta_ra_of_asc_node": 31.6224,
        "meta_arg_of_pericenter": 24.1481,
        "meta_mean_anomaly": 32.8938,
        "meta_ephemeris_type": 0,
        "meta_classification_type": "U",
        "meta_norad_cat_id": 33862,
        "meta_element_set_no": 999,
        "meta_rev_at_epoch": 89020,
        "meta_bstar": 0.0014361789,
        "meta_mean_motion_dot": 8.756e-05,
        "meta_mean_motion_ddot": 0,
        "tle_line1": "1 33862U 97051AF  25360.13378451  .00008756  00000+0  14362-2 0  9995",
        "tle_line2": "2 33862  86.4084  31.6224 0051963  24.1481  32.8938 14.69690287890200"
      },
      "geometry": {
        "type": "Point",
        "coordinates": [
          32.695498119430646,
          19.580855935944488
        ]
      }
    },
    {
      "type": "Feature",
      "properties": {
        "norad_id": 33866,
        "name": "IRIDIUM 33 DEB",
        "group": "iridium-33-debris",
        "lat": 36.51885611802228,
        "lon": 89.91709473145124,
        "alt_km": 790.6815584442893,
        "timestamp": "2025-12-26T14:28:48.087928+00:00",
        "meta_object_name": "IRIDIUM 33 DEB",
        "meta_object_id": "1997-051AK",
        "meta_epoch": "2025-12-26T06:00:43.674336",
        "meta_mean_motion": 14.25315918,
        "meta_eccentricity": 0.01152742,
        "meta_inclination": 86.2997,
        "meta_ra_of_asc_node": 87.3198,
        "meta_arg_of_pericenter": 118.5793,
        "meta_mean_anomaly": 270.1399,
        "meta_ephemeris_type": 0,
        "meta_classification_type": "U",
        "meta_norad_cat_id": 33866,
        "meta_element_set_no": 999,
        "meta_rev_at_epoch": 87003,
        "meta_bstar": 0.0006025218,
        "meta_mean_motion_dot": 1.54e-05,
        "meta_mean_motion_ddot": 0,
        "tle_line1": "1 33866U 97051AK  25360.25050549  .00001540  00000+0  60252-3 0  9991",
        "tle_line2": "2 33866  86.2997  87.3198 0115274 118.5793 270.1399 14.25315918870037"
      },
      "geometry": {
        "type": "Point",
        "coordinates": [
          89.91709473145124,
          36.51885611802228
        ]
      }
    },
    {
      "type": "Feature",
      "properties": {
        "norad_id": 33870,
        "name": "IRIDIUM 33 DEB",
        "group": "iridium-33-debris",
        "lat": 81.7449080431649,
        "lon": 78.23906083182402,
        "alt_km": 721.565989811309,
        "timestamp": "2025-12-26T14:28:48.087939+00:00",
        "meta_object_name": "IRIDIUM 33 DEB",
        "meta_object_id": "1997-051AP",
        "meta_epoch": "2025-12-26T04:22:57.981792",
        "meta_mean_motion": 14.4591679,
        "meta_eccentricity": 0.0022745,
        "meta_inclination": 86.3734,
        "meta_ra_of_asc_node": 52.4978,
        "meta_arg_of_pericenter": 135.5869,
        "meta_mean_anomaly": 278.6408,
        "meta_ephemeris_type": 0,
        "meta_classification_type": "U",
        "meta_norad_cat_id": 33870,
        "meta_element_set_no": 999,
        "meta_rev_at_epoch": 88331,
        "meta_bstar": 0.00069287799,
        "meta_mean_motion_dot": 2.49e-05,
        "meta_mean_motion_ddot": 0,
        "tle_line1": "1 33870U 97051AP  25360.18261553  .00002490  00000+0  69288-3 0  9990",
        "tle_line2": "2 33870  86.3734  52.4978 0022745 135.5869 278.6408 14.45916790883310"
      },
      "geometry": {
        "type": "Point",
        "coordinates": [
          78.23906083182402,
          81.7449080431649
        ]
      }
    },
    {
      "type": "Feature",
      "properties": {
        "norad_id": 33881,
        "name": "IRIDIUM 33 DEB",
        "group": "iridium-33-debris",
        "lat": 50.01503043317024,
        "lon": -83.60552233391931,
        "alt_km": 655.7005281696602,
        "timestamp": "2025-12-26T14:28:48.087950+00:00",
        "meta_object_name": "IRIDIUM 33 DEB",
        "meta_object_id": "1997-051BA",
        "meta_epoch": "2025-12-24T19:37:00.349824",
        "meta_mean_motion": 14.5678795,
        "meta_eccentricity": 0.00611156,
        "meta_inclination": 86.3859,
        "meta_ra_of_asc_node": 101.4931,
        "meta_arg_of_pericenter": 135.6602,
        "meta_mean_anomaly": 353.6404,
        "meta_ephemeris_type": 0,
        "meta_classification_type": "U",
        "meta_norad_cat_id": 33881,
        "meta_element_set_no": 999,
        "meta_rev_at_epoch": 87676,
        "meta_bstar": 0.0022055938,
        "meta_mean_motion_dot": 0.0001015,
        "meta_mean_motion_ddot": 0,
        "tle_line1": "1 33881U 97051BA  25358.81736516  .00010150  00000+0  22056-2 0  9998",
        "tle_line2": "2 33881  86.3859 101.4931 0061115 135.6602 353.6404 14.56787950876761"
      },
      "geometry": {
        "type": "Point",
        "coordinates": [
          -83.60552233391931,
          50.01503043317024
        ]
      }
    },
    {
      "type": "Feature",
      "properties": {
        "norad_id": 33884,
        "name": "IRIDIUM 33 DEB",
        "group": "iridium-33-debris",
        "lat": 36.25098196133426,
        "lon": 6.2266955871337135,
        "alt_km": 637.8801032425527,
        "timestamp": "2025-12-26T14:28:48.087962+00:00",
        "meta_object_name": "IRIDIUM 33 DEB",
        "meta_object_id": "1997-051BD",
        "meta_epoch": "2025-12-26T06:15:16.725600",
        "meta_mean_motion": 14.77700973,
        "meta_eccentricity": 0.00088164,
        "meta_inclination": 86.3712,
        "meta_ra_of_asc_node": 3.7142,
        "meta_arg_of_pericenter": 270.6095,
        "meta_mean_anomaly": 103.7341,
        "meta_ephemeris_type": 0,
        "meta_classification_type": "U",
        "meta_norad_cat_id": 33884,
        "meta_element_set_no": 999,
        "meta_rev_at_epoch": 89047,
        "meta_bstar": 0.0015234068,
        "meta_mean_motion_dot": 0.00010949,
        "meta_mean_motion_ddot": 0,
        "tle_line1": "1 33884U 97051BD  25360.26061025  .00010949  00000+0  15234-2 0  9995",
        "tle_line2": "2 33884  86.3712   3.7142 0008816 270.6095 103.7341 14.77700973890476"
      },
      "geometry": {
        "type": "Point",
        "coordinates": [
          6.2266955871337135,
          36.25098196133426
        ]
      }
    },
    {
      "type": "Feature",
      "properties": {
        "norad_id": 33886,
        "name": "IRIDIUM 33 DEB",
        "group": "iridium-33-debris",
        "lat": 53.448968440402886,
        "lon": 66.28904104437552,
        "alt_km": 773.9390742861669,
        "timestamp": "2025-12-26T14:28:48.087972+00:00",
        "meta_object_name": "IRIDIUM 33 DEB",
        "meta_object_id": "1997-051BF",
        "meta_epoch": "2025-12-26T06:10:31.467360",
        "meta_mean_motion": 14.36067258,
        "meta_eccentricity": 0.00136174,
        "meta_inclination": 86.3819,
        "meta_ra_of_asc_node": 61.5386,
        "meta_arg_of_pericenter": 193.9431,
        "meta_mean_anomaly": 232.0618,
        "meta_ephemeris_type": 0,
        "meta_classification_type": "U",
        "meta_norad_cat_id": 33886,
        "meta_element_set_no": 999,
        "meta_rev_at_epoch": 88246,
        "meta_bstar": 0.00019132967,
        "meta_mean_motion_dot": 5.76e-06,
        "meta_mean_motion_ddot": 0,
        "tle_line1": "1 33886U 97051BF  25360.25730865  .00000576  00000+0  19133-3 0  9999",
        "tle_line2": "2 33886  86.3819  61.5386 0013617 193.9431 232.0618 14.36067258882464"
      },
      "geometry": {
        "type": "Point",
        "coordinates": [
          66.28904104437552,
          53.448968440402886
        ]
      }
    }
  ]
}